{
  "type": "FeatureCollection",
  "features": [
    {
      "type": "Feature",
      "properties": {
        "norad_id": 36744,
        "name": "COMS 1",
        "group": "weather",
        "lat": 2.9360288248174045,
        "lon": -144.3799496394411,
        "alt_km": 35785.48653907109,
        "timestamp": "2025-12-26T23:26:41.799890+00:00",
        "meta_object_name": "COMS 1",
        "meta_object_id": "2010-032A",
        "meta_epoch": "2025-12-25T12:42:15.782976",
        "meta_mean_motion": 1.00270082,
        "meta_eccentricity": 8.877e-05,
        "meta_inclination": 4.3689,
        "meta_ra_of_asc_node": 77.8525,
        "meta_arg_of_pericenter": 213.8569,
        "meta_mean_anomaly": 121.3153,
        "meta_ephemeris_type": 0,
        "meta_classification_type": "U",
        "meta_norad_cat_id": 36744,
        "meta_element_set_no": 999,
        "meta_rev_at_epoch": 4934,
        "meta_bstar": 0,
        "meta_mean_motion_dot": -3.24e-06,
        "meta_mean_motion_ddot": 0,
        "tle_line1": "1 36744U 10032A   25359.52934934 -.00000324  00000+0  00000+0 0  9991",
        "tle_line2": "2 36744   4.3689  77.8525 0000887 213.8569 121.3153  1.00270082 49343"
      },
      "geometry": {
        "type": "Point",
        "coordinates": [
          -144.3799496394411,
          2.9360288248174045
        ]
      }
    },
    {
      "type": "Feature",
      "properties": {
        "norad_id": 37214,
        "name": "FENGYUN 3B",
        "group": "weather",
        "lat": 31.767301387255202,
        "lon": -133.32318261038975,
        "alt_km": 856.3522247620531,
        "timestamp": "2025-12-26T23:26:41.799901+00:00",
        "meta_object_name": "FENGYUN 3B",
        "meta_object_id": "2010-059A",
        "meta_epoch": "2025-12-26T18:17:35.992032",
        "meta_mean_motion": 14.14794454,
        "meta_eccentricity": 0.0021466,
        "meta_inclination": 98.9887,
        "meta_ra_of_asc_node": 40.8359,
        "meta_arg_of_pericenter": 317.4441,
        "meta_mean_anomaly": 177.6353,
        "meta_ephemeris_type": 0,
        "meta_classification_type": "U",
        "meta_norad_cat_id": 37214,
        "meta_element_set_no": 999,
        "meta_rev_at_epoch": 78304,
        "meta_bstar": 0.00014377,
        "meta_mean_motion_dot": 2.32e-06,
        "meta_mean_motion_ddot": 0,
        "tle_line1": "1 37214U 10059A   25360.76222213  .00000232  00000+0  14377-3 0  9994",
        "tle_line2": "2 37214  98.9887  40.8359 0021466 317.4441 177.6353 14.14794454783047"
      },
      "geometry": {
        "type": "Point",
        "coordinates": [
          -133.32318261038975,
          31.767301387255202
        ]
      }
    },
    {
      "type": "Feature",
      "properties": {
        "norad_id": 37849,
        "name": "SUOMI NPP",
        "group": "weather",
        "lat": -49.40610201105729,
        "lon": 107.80188233374649,
        "alt_km": 835.1818917259989,
        "timestamp": "2025-12-26T23:26:41.799911+00:00",
        "meta_object_name": "SUOMI NPP",
        "meta_object_id": "2011-061A",
        "meta_epoch": "2025-12-22T15:10:21.732672",
        "meta_mean_motion": 14.19516903,
        "meta_eccentricity": 0.00024883,
        "meta_inclination": 98.7787,
        "meta_ra_of_asc_node": 293.8852,
        "meta_arg_of_pericenter": 103.0781,
        "meta_mean_anomaly": 257.0673,
        "meta_ephemeris_type": 0,
        "meta_classification_type": "U",
        "meta_norad_cat_id": 37849,
        "meta_element_set_no": 999,
        "meta_rev_at_epoch": 73339,
        "meta_bstar": 6.3406935e-05,
        "meta_mean_motion_dot": 8.9e-07,
        "meta_mean_motion_ddot": 0,
        "tle_line1": "1 37849U 11061A   25356.63219598  .00000089  00000+0  63407-4 0  9994",
        "tle_line2": "2 37849  98.7787 293.8852 0002488 103.0781 257.0673 14.19516903733392"
      },
      "geometry": {
        "type": "Point",
        "coordinates": [
          107.80188233374649,
          -49.40610201105729
        ]
      }
    },
    {
      "type": "Feature",
      "properties": {
        "norad_id": 38552,
        "name": "METEOSAT-10 (MSG-3)",
        "group": "weather",
        "lat": 1.8800067169416517,
        "lon": 87.5867128547416,
        "alt_km": 35790.427922712595,
        "timestamp": "2025-12-26T23:26:41.799922+00:00",
        "meta_object_name": "METEOSAT-10 (MSG-3)",
        "meta_object_id": "2012-035B",
        "meta_epoch": "2025-12-25T19:55:02.807904",
        "meta_mean_motion": 1.00266624,
        "meta_eccentricity": 0.0001479,
        "meta_inclination": 4.2575,
        "meta_ra_of_asc_node": 61.6862,
        "meta_arg_of_pericenter": 265.3349,
        "meta_mean_anomaly": 66.5982,
        "meta_ephemeris_type": 0,
        "meta_classification_type": "U",
        "meta_norad_cat_id": 38552,
        "meta_element_set_no": 999,
        "meta_rev_at_epoch": 4911,
        "meta_bstar": 0,
        "meta_mean_motion_dot": 1.4e-07,
        "meta_mean_motion_ddot": 0,
        "tle_line1": "1 38552U 12035B   25359.82989361  .00000014  00000+0  00000+0 0  9997",
        "tle_line2": "2 38552   4.2575  61.6862 0001479 265.3349  66.5982  1.00266624 49118"
      },
      "geometry": {
        "type": "Point",
        "coordinates": [
          87.5867128547416,
          1.8800067169416517
        ]
      }
    },
    {
      "type": "Feature",
      "properties": {
        "norad_id": 38771,
        "name": "METOP-B",
        "group": "weather",
        "lat": 0.631762899243028,
        "lon": -129.21056642884852,
        "alt_km": 822.3938123945036,
        "timestamp": "2025-12-26T23:26:41.799931+00:00",
        "meta_object_name": "METOP-B",
        "meta_object_id": "2012-049A",
        "meta_epoch": "2025-12-26T17:32:11.113152",
        "meta_mean_motion": 14.21413593,
        "meta_eccentricity": 0.0003305,
        "meta_inclination": 98.678,
        "meta_ra_of_asc_node": 50.451,
        "meta_arg_of_pericenter": 115.2256,
        "meta_mean_anomaly": 244.9264,
        "meta_ephemeris_type": 0,
        "meta_classification_type": "U",
        "meta_norad_cat_id": 38771,
        "meta_element_set_no": 999,
        "meta_rev_at_epoch": 68876,
        "meta_bstar": 8.1383e-05,
        "meta_mean_motion_dot": 1.34e-06,
        "meta_mean_motion_ddot": 0,
        "tle_line1": "1 38771U 12049A   25360.73068418  .00000134  00000+0  81383-4 0  9999",
        "tle_line2": "2 38771  98.6780  50.4510 0003305 115.2256 244.9264 14.21413593688763"
      },
      "geometry": {
        "type": "Point",
        "coordinates": [
          -129.21056642884852,
          0.631762899243028
        ]
      }
    },
    {
      "type": "Feature",
      "properties": {
        "norad_id": 39216,
        "name": "INSAT-3D",
        "group": "weather",
        "lat": 1.0900718489846761,
        "lon": -143.0626960400001,
        "alt_km": 35778.148678716214,
        "timestamp": "2025-12-26T23:26:41.799942+00:00",
        "meta_object_name": "INSAT-3D",
        "meta_object_id": "2013-038B",
        "meta_epoch": "2025-12-26T14:40:38.546400",
        "meta_mean_motion": 1.00273304,
        "meta_eccentricity": 0.0001962,
        "meta_inclination": 1.4788,
        "meta_ra_of_asc_node": 84.8393,
        "meta_arg_of_pericenter": 158.3266,
        "meta_mean_anomaly": 201.9018,
        "meta_ephemeris_type": 0,
        "meta_classification_type": "U",
        "meta_norad_cat_id": 39216,
        "meta_element_set_no": 999,
        "meta_rev_at_epoch": 4535,
        "meta_bstar": 0,
        "meta_mean_motion_dot": -3.17e-06,
        "meta_mean_motion_ddot": 0,
        "tle_line1": "1 39216U 13038B   25360.61155725 -.00000317  00000+0  00000+0 0  9994",
        "tle_line2": "2 39216   1.4788  84.8393 0001962 158.3266 201.9018  1.00273304 45353"
      },
      "geometry": {
        "type": "Point",
        "coordinates": [
          -143.0626960400001,
          1.0900718489846761
        ]
      }
    },
    {
      "type": "Feature",
      "properties": {
        "norad_id": 39260,
        "name": "FENGYUN 3C",
        "group": "weather",
        "lat": 45.76273382939356,
        "lon": 166.7732533914728,
        "alt_km": 825.8058365257621,
        "timestamp": "2025-12-26T23:26:41.799952+00:00",
        "meta_object_name": "FENGYUN 3C",
        "meta_object_id": "2013-052A",
        "meta_epoch": "2025-12-26T17:43:40.020096",
        "meta_mean_motion": 14.15700498,
        "meta_eccentricity": 0.0015068,
        "meta_inclination": 98.478,
        "meta_ra_of_asc_node": 337.7355,
        "meta_arg_of_pericenter": 155.7911,
        "meta_mean_anomaly": 204.3975,
        "meta_ephemeris_type": 0,
        "meta_classification_type": "U",
        "meta_norad_cat_id": 39260,
        "meta_element_set_no": 999,
        "meta_rev_at_epoch": 63416,
        "meta_bstar": 7.616e-05,
        "meta_mean_motion_dot": 1.08e-06,
        "meta_mean_motion_ddot": 0,
        "tle_line1": "1 39260U 13052A   25360.73865764  .00000108  00000+0  76160-4 0  9995",
        "tle_line2": "2 39260  98.4780 337.7355 0015068 155.7911 204.3975 14.15700498634169"
      },
      "geometry": {
        "type": "Point",
        "coordinates": [
          166.7732533914728,
          45.76273382939356
        ]
      }
    }
  ]
}